{
  "type": "FeatureCollection",
  "features": [
    {
      "type": "Feature",
      "properties": {
        "norad_id": 66619,
        "name": "STARLINK-35951",
        "group": "last-30-days",
        "lat": -0.2037327894772233,
        "lon": 177.27516757587665,
        "alt_km": 419.7723609778768,
        "timestamp": "2025-12-14T18:52:54.242578+00:00",
        "meta_object_name": "STARLINK-35951",
        "meta_object_id": "2025-271C",
        "meta_epoch": "2025-12-13T20:00:03.000384",
        "meta_mean_motion": 15.49302284,
        "meta_eccentricity": 6.858e-05,
        "meta_inclination": 53.16,
        "meta_ra_of_asc_node": 181.988,
        "meta_arg_of_pericenter": 141.1889,
        "meta_mean_anomaly": 298.045,
        "meta_ephemeris_type": 0,
        "meta_classification_type": "U",
        "meta_norad_cat_id": 66619,
        "meta_element_set_no": 999,
        "meta_rev_at_epoch": 441,
        "meta_bstar": 0.00097380146,
        "meta_mean_motion_dot": 0.00054073,
        "meta_mean_motion_ddot": 0,
        "tle_line1": "1 66619U 25271C   25347.83336806  .00054073  00000+0  97380-3 0  9991",
        "tle_line2": "2 66619  53.1600 181.9880 0000685 141.1889 298.0450 15.49302284  4416"
      },
      "geometry": {
        "type": "Point",
        "coordinates": [
          177.27516757587665,
          -0.2037327894772233
        ]
      }
    },
    {
      "type": "Feature",
      "properties": {
        "norad_id": 66620,
        "name": "STARLINK-35936",
        "group": "last-30-days",
        "lat": -4.816237474774094,
        "lon": 173.81924601600585,
        "alt_km": 419.8303581467262,
        "timestamp": "2025-12-14T18:52:54.242588+00:00",
        "meta_object_name": "STARLINK-35936",
        "meta_object_id": "2025-271D",
        "meta_epoch": "2025-12-13T20:00:03.000384",
        "meta_mean_motion": 15.49270829,
        "meta_eccentricity": 8.607e-05,
        "meta_inclination": 53.1601,
        "meta_ra_of_asc_node": 182.0009,
        "meta_arg_of_pericenter": 60.0226,
        "meta_mean_anomaly": 13.5401,
        "meta_ephemeris_type": 0,
        "meta_classification_type": "U",
        "meta_norad_cat_id": 66620,
        "meta_element_set_no": 999,
        "meta_rev_at_epoch": 441,
        "meta_bstar": 0.0010597279,
        "meta_mean_motion_dot": 0.00058855,
        "meta_mean_motion_ddot": 0,
        "tle_line1": "1 66620U 25271D   25347.83336806  .00058855  00000+0  10597-2 0  9999",
        "tle_line2": "2 66620  53.1601 182.0009 0000860  60.0226  13.5401 15.49270829  4418"
      },
      "geometry": {
        "type": "Point",
        "coordinates": [
          173.81924601600585,
          -4.816237474774094
        ]
      }
    },
    {
      "type": "Feature",
      "properties": {
        "norad_id": 66621,
        "name": "STARLINK-35847",
        "group": "last-30-days",
        "lat": 37.147940998983835,
        "lon": -148.06484582037734,
        "alt_km": 413.11549173612,
        "timestamp": "2025-12-14T18:52:54.242611+00:00",
        "meta_object_name": "STARLINK-35847",
        "meta_object_id": "2025-271E",
        "meta_epoch": "2025-12-13T20:00:03.000384",
        "meta_mean_motion": 15.49301055,
        "meta_eccentricity": 7.351e-05,
        "meta_inclination": 53.16,
        "meta_ra_of_asc_node": 181.8847,
        "meta_arg_of_pericenter": 48.7293,
        "meta_mean_anomaly": 79.6867,
        "meta_ephemeris_type": 0,
        "meta_classification_type": "U",
        "meta_norad_cat_id": 66621,
        "meta_element_set_no": 999,
        "meta_rev_at_epoch": 441,
        "meta_bstar": 0.0011729941,
        "meta_mean_motion_dot": 0.00065318,
        "meta_mean_motion_ddot": 0,
        "tle_line1": "1 66621U 25271E   25347.83336806  .00065318  00000+0  11730-2 0  9992",
        "tle_line2": "2 66621  53.1600 181.8847 0000735  48.7293  79.6867 15.49301055  4418"
      },
      "geometry": {
        "type": "Point",
        "coordinates": [
          -148.06484582037734,
          37.147940998983835
        ]
      }
    },
    {
      "type": "Feature",
      "properties": {
        "norad_id": 66622,
        "name": "STARLINK-35950",
        "group": "last-30-days",
        "lat": 1.3222388530070326,
        "lon": 178.41651081972344,
        "alt_km": 419.25987226136294,
        "timestamp": "2025-12-14T18:52:54.242623+00:00",
        "meta_object_name": "STARLINK-35950",
        "meta_object_id": "2025-271F",
        "meta_epoch": "2025-12-13T20:00:03.000384",
        "meta_mean_motion": 15.49272615,
        "meta_eccentricity": 6.887e-05,
        "meta_inclination": 53.1598,
        "meta_ra_of_asc_node": 181.9849,
        "meta_arg_of_pericenter": 88.6479,
        "meta_mean_anomaly": 352.5854,
        "meta_ephemeris_type": 0,
        "meta_classification_type": "U",
        "meta_norad_cat_id": 66622,
        "meta_element_set_no": 999,
        "meta_rev_at_epoch": 441,
        "meta_bstar": 0.0010450063,
        "meta_mean_motion_dot": 0.00058029,
        "meta_mean_motion_ddot": 0,
        "tle_line1": "1 66622U 25271F   25347.83336806  .00058029  00000+0  10450-2 0  9992",
        "tle_line2": "2 66622  53.1598 181.9849 0000688  88.6479 352.5854 15.49272615  4412"
      },
      "geometry": {
        "type": "Point",
        "coordinates": [
          178.41651081972344,
          1.3222388530070326
        ]
      }
    },
    {
      "type": "Feature",
      "properties": {
        "norad_id": 66623,
        "name": "STARLINK-35920",
        "group": "last-30-days",
        "lat": 4.394128563971117,
        "lon": -179.2813585044948,
        "alt_km": 418.7596477041898,
        "timestamp": "2025-12-14T18:52:54.242633+00:00",
        "meta_object_name": "STARLINK-35920",
        "meta_object_id": "2025-271G",
        "meta_epoch": "2025-12-13T20:00:03.000384",
        "meta_mean_motion": 15.49267756,
        "meta_eccentricity": 0.0001276,
        "meta_inclination": 53.16,
        "meta_ra_of_asc_node": 181.9759,
        "meta_arg_of_pericenter": 89.4181,
        "meta_mean_anomaly": 355.653,
        "meta_ephemeris_type": 0,
        "meta_classification_type": "U",
        "meta_norad_cat_id": 66623,
        "meta_element_set_no": 999,
        "meta_rev_at_epoch": 441,
        "meta_bstar": 0.0011927687,
        "meta_mean_motion_dot": 0.00066357,
        "meta_mean_motion_ddot": 0,
        "tle_line1": "1 66623U 25271G   25347.83336806  .00066357  00000+0  11928-2 0  9997",
        "tle_line2": "2 66623  53.1600 181.9759 0001276  89.4181 355.6530 15.49267756  4415"
      },
      "geometry": {
        "type": "Point",
        "coordinates": [
          -179.2813585044948,
          4.394128563971117
        ]
      }
    },
    {
      "type": "Feature",
      "properties": {
        "norad_id": 66624,
        "name": "STARLINK-35927",
        "group": "last-30-days",
        "lat": 2.834969991985077,
        "lon": 179.548500869342,
        "alt_km": 419.0759804027448,
        "timestamp": "2025-12-14T18:52:54.242643+00:00",
        "meta_object_name": "STARLINK-35927",
        "meta_object_id": "2025-271H",
        "meta_epoch": "2025-12-13T20:00:03.000384",
        "meta_mean_motion": 15.4927336,
        "meta_eccentricity": 6.487e-05,
        "meta_inclination": 53.1599,
        "meta_ra_of_asc_node": 181.9807,
        "meta_arg_of_pericenter": 86.9012,
        "meta_mean_anomaly": 356.2492,
        "meta_ephemeris_type": 0,
        "meta_classification_type": "U",
        "meta_norad_cat_id": 66624,
        "meta_element_set_no": 999,
        "meta_rev_at_epoch": 441,
        "meta_bstar": 0.00088528085,
        "meta_mean_motion_dot": 0.00049035,
        "meta_mean_motion_ddot": 0,
        "tle_line1": "1 66624U 25271H   25347.83336806  .00049035  00000+0  88528-3 0  9993",
        "tle_line2": "2 66624  53.1599 181.9807 0000648  86.9012 356.2492 15.49273360  4416"
      },
      "geometry": {
        "type": "Point",
        "coordinates": [
          179.548500869342,
          2.834969991985077
        ]
      }
    },
    {
      "type": "Feature",
      "properties": {
        "norad_id": 66625,
        "name": "STARLINK-35929",
        "group": "last-30-days",
        "lat": 5.889815614991627,
        "lon": -178.15220803684926,
        "alt_km": 418.58064043322975,
        "timestamp": "2025-12-14T18:52:54.242658+00:00",
        "meta_object_name": "STARLINK-35929",
        "meta_object_id": "2025-271J",
        "meta_epoch": "2025-12-13T20:00:03.000384",
        "meta_mean_motion": 15.49273365,
        "meta_eccentricity": 0.00012071,
        "meta_inclination": 53.1601,
        "meta_ra_of_asc_node": 181.9719,
        "meta_arg_of_pericenter": 88.3617,
        "meta_mean_anomaly": 358.6123,
        "meta_ephemeris_type": 0,
        "meta_classification_type": "U",
        "meta_norad_cat_id": 66625,
        "meta_element_set_no": 999,
        "meta_rev_at_epoch": 441,
        "meta_bstar": 0.00091876086,
        "meta_mean_motion_dot": 0.00050919,
        "meta_mean_motion_ddot": 0,
        "tle_line1": "1 66625U 25271J   25347.83336806  .00050919  00000+0  91876-3 0  9997",
        "tle_line2": "2 66625  53.1601 181.9719 0001207  88.3617 358.6123 15.49273365  4414"
      },
      "geometry": {
        "type": "Point",
        "coordinates": [
          -178.15220803684926,
          5.889815614991627
        ]
      }
    }
  ]
}